IRIDIUM 39              
1 25042U 97069D   25148.31230579  .00000525  00000+0  13213-3 0  9998
2 25042  86.3944 219.6462 0018373  20.8996 339.2955 14.49198182446080
IRIDIUM 38              
1 25043U 97069E   25148.54739191  .00000440  00000+0  13868-3 0  9990
2 25043  86.3971 241.4128 0003513 125.8079 234.3445 14.38101646443130
IRIDIUM 42              
1 25077U 97077A   25148.59914793  .00000417  00000+0  13604-3 0  9996
2 25077  86.3970 247.5374 0002442 112.7446 247.4010 14.36337324438385
IRIDIUM 44              
1 25078U 97077B   25148.46749883  .00000395  00000+0  11876-3 0  9993
2 25078  86.3983 229.5689 0004190  94.0349 266.1329 14.40227003440869
IRIDIUM 45              
1 25104U 97082A   25148.46455895  .00023134  00000+0  83535-3 0  9993
2 25104  86.3603  57.4667 0120773  46.6534 314.4696 15.21619199449041
IRIDIUM 24              
1 25105U 97082B   25148.53537164  .00000522  00000+0  15262-3 0  9990
2 25105  86.3896  88.6360 0012746 134.4864 225.7380 14.42080570440383
IRIDIUM 57              
1 25273U 98019B   25148.58980108  .00000326  00000+0  10569-3 0  9999
2 25273  86.3966 153.4717 0002325  91.5757 268.5706 14.35880699421973
